G21 G17 G90 G1 X0.00 Y0.00 Z-40.00 F500
G21 G17 G90 G1  X-10 F500
G21 G17 G90 G1 X0.00 Y0.00 Z-30.00 F500
G21 G17 G90 G1  X-10 F500
G21 G17 G90 G1 X0.00 Y9.48 Z-30.00 F500
G21 G17 G90 G1  X-10 F500
G21 G17 G90 G1 X0.00 Y17.71 Z-30.00 F500
G21 G17 G90 G1  X-10 F500
G21 G17 G90 G1 X0.00 Y23.58 Z-30.00 F500
G21 G17 G90 G1  X-10 F500
G21 G17 G90 G1 X0.00 Y26.32 Z-30.00 F500
G21 G17 G90 G1  X-10 F500
G21 G17 G90 G1 X0.00 Y25.56 Z-30.00 F500
G21 G17 G90 G1  X-10 F500
G21 G17 G90 G1 X0.00 Y21.41 Z-30.00 F500
G21 G17 G90 G1  X-10 F500
G21 G17 G90 G1 X0.00 Y14.41 Z-30.00 F500
G21 G17 G90 G1  X-10 F500
G21 G17 G90 G1 X0.00 Y5.50 Z-30.00 F500
G21 G17 G90 G1  X-10 F500
G21 G17 G90 G1 X0.00 Y-4.14 Z-30.00 F500
G21 G17 G90 G1  X-10 F500
G21 G17 G90 G1 X0.00 Y-13.23 Z-30.00 F500
G21 G17 G90 G1  X-10 F500
G21 G17 G90 G1 X0.00 Y-20.56 Z-30.00 F500
G21 G17 G90 G1  X-10 F500
G21 G17 G90 G1 X0.00 Y-25.16 Z-30.00 F500
G21 G17 G90 G1  X-10 F500
G21 G17 G90 G1 X0.00 Y-26.42 Z-30.00 F500
G21 G17 G90 G1  X-10 F500
G21 G17 G90 G1 X0.00 Y-24.17 Z-30.00 F500
G21 G17 G90 G1  X-10 F500
G21 G17 G90 G1 X0.00 Y-18.71 Z-30.00 F500
G21 G17 G90 G1  X-10 F500
G21 G17 G90 G1 X0.00 Y-10.76 Z-30.00 F500
G21 G17 G90 G1  X-10 F500
G21 G17 G90 G1 X0.00 Y-1.38 Z-30.00 F500
G21 G17 G90 G1  X-10 F500
G21 G17 G90 G1 X0.00 Y0.00 Z-20.00 F500
G21 G17 G90 G1  X-10 F500
G21 G17 G90 G1 X0.00 Y9.55 Z-20.00 F500
G21 G17 G90 G1  X-10 F500
G21 G17 G90 G1 X0.00 Y18.36 Z-20.00 F500
G21 G17 G90 G1  X-10 F500
G21 G17 G90 G1 X0.00 Y25.74 Z-20.00 F500
G21 G17 G90 G1  X-10 F500
G21 G17 G90 G1 X0.00 Y31.13 Z-20.00 F500
G21 G17 G90 G1  X-10 F500
G21 G17 G90 G1 X0.00 Y34.11 Z-20.00 F500
G21 G17 G90 G1  X-10 F500
G21 G17 G90 G1 X0.00 Y34.45 Z-20.00 F500
G21 G17 G90 G1  X-10 F500
G21 G17 G90 G1 X0.00 Y32.12 Z-20.00 F500
G21 G17 G90 G1  X-10 F500
G21 G17 G90 G1 X0.00 Y27.30 Z-20.00 F500
G21 G17 G90 G1  X-10 F500
G21 G17 G90 G1 X0.00 Y20.36 Z-20.00 F500
G21 G17 G90 G1  X-10 F500
G21 G17 G90 G1 X0.00 Y11.85 Z-20.00 F500
G21 G17 G90 G1  X-10 F500
G21 G17 G90 G1 X0.00 Y2.42 Z-20.00 F500
G21 G17 G90 G1  X-10 F500
G21 G17 G90 G1 X0.00 Y-7.20 Z-20.00 F500
G21 G17 G90 G1  X-10 F500
G21 G17 G90 G1 X0.00 Y-16.26 Z-20.00 F500
G21 G17 G90 G1  X-10 F500
G21 G17 G90 G1 X0.00 Y-24.06 Z-20.00 F500
G21 G17 G90 G1  X-10 F500
G21 G17 G90 G1 X0.00 Y-30.00 Z-20.00 F500
G21 G17 G90 G1  X-10 F500
G21 G17 G90 G1 X0.00 Y-33.61 Z-20.00 F500
G21 G17 G90 G1  X-10 F500
G21 G17 G90 G1 X0.00 Y-34.62 Z-20.00 F500
G21 G17 G90 G1  X-10 F500
G21 G17 G90 G1 X0.00 Y-32.94 Z-20.00 F500
G21 G17 G90 G1  X-10 F500
G21 G17 G90 G1 X0.00 Y-28.72 Z-20.00 F500
G21 G17 G90 G1  X-10 F500
G21 G17 G90 G1 X0.00 Y-22.27 Z-20.00 F500
G21 G17 G90 G1  X-10 F500
G21 G17 G90 G1 X0.00 Y-14.09 Z-20.00 F500
G21 G17 G90 G1  X-10 F500
G21 G17 G90 G1 X0.00 Y-4.82 Z-20.00 F500
G21 G17 G90 G1  X-10 F500
G21 G17 G90 G1 X0.00 Y0.00 Z-10.00 F500
G21 G17 G90 G1  X-10 F500
G21 G17 G90 G1 X0.00 Y9.37 Z-10.00 F500
G21 G17 G90 G1  X-10 F500
G21 G17 G90 G1 X0.00 Y18.18 Z-10.00 F500
G21 G17 G90 G1  X-10 F500
G21 G17 G90 G1 X0.00 Y25.92 Z-10.00 F500
G21 G17 G90 G1  X-10 F500
G21 G17 G90 G1 X0.00 Y32.11 Z-10.00 F500
G21 G17 G90 G1  X-10 F500
G21 G17 G90 G1 X0.00 Y36.39 Z-10.00 F500
G21 G17 G90 G1  X-10 F500
G21 G17 G90 G1 X0.00 Y38.52 Z-10.00 F500
G21 G17 G90 G1  X-10 F500
G21 G17 G90 G1 X0.00 Y38.35 Z-10.00 F500
G21 G17 G90 G1  X-10 F500
G21 G17 G90 G1 X0.00 Y35.91 Z-10.00 F500
G21 G17 G90 G1  X-10 F500
G21 G17 G90 G1 X0.00 Y31.33 Z-10.00 F500
G21 G17 G90 G1  X-10 F500
G21 G17 G90 G1 X0.00 Y24.90 Z-10.00 F500
G21 G17 G90 G1  X-10 F500
G21 G17 G90 G1 X0.00 Y16.98 Z-10.00 F500
G21 G17 G90 G1  X-10 F500
G21 G17 G90 G1 X0.00 Y8.05 Z-10.00 F500
G21 G17 G90 G1  X-10 F500
G21 G17 G90 G1 X0.00 Y-1.35 Z-10.00 F500
G21 G17 G90 G1  X-10 F500
G21 G17 G90 G1 X0.00 Y-10.68 Z-10.00 F500
G21 G17 G90 G1  X-10 F500
G21 G17 G90 G1 X0.00 Y-19.37 Z-10.00 F500
G21 G17 G90 G1  X-10 F500
G21 G17 G90 G1 X0.00 Y-26.90 Z-10.00 F500
G21 G17 G90 G1  X-10 F500
G21 G17 G90 G1 X0.00 Y-32.84 Z-10.00 F500
G21 G17 G90 G1  X-10 F500
G21 G17 G90 G1 X0.00 Y-36.83 Z-10.00 F500
G21 G17 G90 G1  X-10 F500
G21 G17 G90 G1 X0.00 Y-38.64 Z-10.00 F500
G21 G17 G90 G1  X-10 F500
G21 G17 G90 G1 X0.00 Y-38.14 Z-10.00 F500
G21 G17 G90 G1  X-10 F500
G21 G17 G90 G1 X0.00 Y-35.38 Z-10.00 F500
G21 G17 G90 G1  X-10 F500
G21 G17 G90 G1 X0.00 Y-30.52 Z-10.00 F500
G21 G17 G90 G1  X-10 F500
G21 G17 G90 G1 X0.00 Y-23.84 Z-10.00 F500
G21 G17 G90 G1  X-10 F500
G21 G17 G90 G1 X0.00 Y-15.75 Z-10.00 F500
G21 G17 G90 G1  X-10 F500
G21 G17 G90 G1 X0.00 Y-6.73 Z-10.00 F500
G21 G17 G90 G1  X-10 F500
G21 G17 G90 G1 X0.00 Y0.00 Z0.00 F500
G21 G17 G90 G1  X-10 F500
G21 G17 G90 G1 X0.00 Y9.68 Z0.00 F500
G21 G17 G90 G1  X-10 F500
G21 G17 G90 G1 X0.00 Y18.78 Z0.00 F500
G21 G17 G90 G1  X-10 F500
G21 G17 G90 G1 X0.00 Y26.77 Z0.00 F500
G21 G17 G90 G1  X-10 F500
G21 G17 G90 G1 X0.00 Y33.16 Z0.00 F500
G21 G17 G90 G1  X-10 F500
G21 G17 G90 G1 X0.00 Y37.59 Z0.00 F500
G21 G17 G90 G1  X-10 F500
G21 G17 G90 G1 X0.00 Y39.78 Z0.00 F500
G21 G17 G90 G1  X-10 F500
G21 G17 G90 G1 X0.00 Y39.61 Z0.00 F500
G21 G17 G90 G1  X-10 F500
G21 G17 G90 G1 X0.00 Y37.09 Z0.00 F500
G21 G17 G90 G1  X-10 F500
G21 G17 G90 G1 X0.00 Y32.36 Z0.00 F500
G21 G17 G90 G1  X-10 F500
G21 G17 G90 G1 X0.00 Y25.71 Z0.00 F500
G21 G17 G90 G1  X-10 F500
G21 G17 G90 G1 X0.00 Y17.53 Z0.00 F500
G21 G17 G90 G1  X-10 F500
G21 G17 G90 G1 X0.00 Y8.32 Z0.00 F500
G21 G17 G90 G1  X-10 F500
G21 G17 G90 G1 X0.00 Y-1.40 Z0.00 F500
G21 G17 G90 G1  X-10 F500
G21 G17 G90 G1 X0.00 Y-11.03 Z0.00 F500
G21 G17 G90 G1  X-10 F500
G21 G17 G90 G1 X0.00 Y-20.00 Z0.00 F500
G21 G17 G90 G1  X-10 F500
G21 G17 G90 G1 X0.00 Y-27.79 Z0.00 F500
G21 G17 G90 G1  X-10 F500
G21 G17 G90 G1 X0.00 Y-33.92 Z0.00 F500
G21 G17 G90 G1  X-10 F500
G21 G17 G90 G1 X0.00 Y-38.04 Z0.00 F500
G21 G17 G90 G1  X-10 F500
G21 G17 G90 G1 X0.00 Y-39.90 Z0.00 F500
G21 G17 G90 G1  X-10 F500
G21 G17 G90 G1 X0.00 Y-39.39 Z0.00 F500
G21 G17 G90 G1  X-10 F500
G21 G17 G90 G1 X0.00 Y-36.54 Z0.00 F500
G21 G17 G90 G1  X-10 F500
G21 G17 G90 G1 X0.00 Y-31.52 Z0.00 F500
G21 G17 G90 G1  X-10 F500
G21 G17 G90 G1 X0.00 Y-24.63 Z0.00 F500
G21 G17 G90 G1  X-10 F500
G21 G17 G90 G1 X0.00 Y-16.27 Z0.00 F500
G21 G17 G90 G1  X-10 F500
G21 G17 G90 G1 X0.00 Y-6.95 Z0.00 F500
G21 G17 G90 G1  X-10 F500
G21 G17 G90 G1 X0.00 Y0.00 Z10.00 F500
G21 G17 G90 G1  X-10 F500
G21 G17 G90 G1 X0.00 Y9.37 Z10.00 F500
G21 G17 G90 G1  X-10 F500
G21 G17 G90 G1 X0.00 Y18.18 Z10.00 F500
G21 G17 G90 G1  X-10 F500
G21 G17 G90 G1 X0.00 Y25.92 Z10.00 F500
G21 G17 G90 G1  X-10 F500
G21 G17 G90 G1 X0.00 Y32.11 Z10.00 F500
G21 G17 G90 G1  X-10 F500
G21 G17 G90 G1 X0.00 Y36.39 Z10.00 F500
G21 G17 G90 G1  X-10 F500
G21 G17 G90 G1 X0.00 Y38.52 Z10.00 F500
G21 G17 G90 G1  X-10 F500
G21 G17 G90 G1 X0.00 Y38.35 Z10.00 F500
G21 G17 G90 G1  X-10 F500
G21 G17 G90 G1 X0.00 Y35.91 Z10.00 F500
G21 G17 G90 G1  X-10 F500
G21 G17 G90 G1 X0.00 Y31.33 Z10.00 F500
G21 G17 G90 G1  X-10 F500
G21 G17 G90 G1 X0.00 Y24.90 Z10.00 F500
G21 G17 G90 G1  X-10 F500
G21 G17 G90 G1 X0.00 Y16.98 Z10.00 F500
G21 G17 G90 G1  X-10 F500
G21 G17 G90 G1 X0.00 Y8.05 Z10.00 F500
G21 G17 G90 G1  X-10 F500
G21 G17 G90 G1 X0.00 Y-1.35 Z10.00 F500
G21 G17 G90 G1  X-10 F500
G21 G17 G90 G1 X0.00 Y-10.68 Z10.00 F500
G21 G17 G90 G1  X-10 F500
G21 G17 G90 G1 X0.00 Y-19.37 Z10.00 F500
G21 G17 G90 G1  X-10 F500
G21 G17 G90 G1 X0.00 Y-26.90 Z10.00 F500
G21 G17 G90 G1  X-10 F500
G21 G17 G90 G1 X0.00 Y-32.84 Z10.00 F500
G21 G17 G90 G1  X-10 F500
G21 G17 G90 G1 X0.00 Y-36.83 Z10.00 F500
G21 G17 G90 G1  X-10 F500
G21 G17 G90 G1 X0.00 Y-38.64 Z10.00 F500
G21 G17 G90 G1  X-10 F500
G21 G17 G90 G1 X0.00 Y-38.14 Z10.00 F500
G21 G17 G90 G1  X-10 F500
G21 G17 G90 G1 X0.00 Y-35.38 Z10.00 F500
G21 G17 G90 G1  X-10 F500
G21 G17 G90 G1 X0.00 Y-30.52 Z10.00 F500
G21 G17 G90 G1  X-10 F500
G21 G17 G90 G1 X0.00 Y-23.84 Z10.00 F500
G21 G17 G90 G1  X-10 F500
G21 G17 G90 G1 X0.00 Y-15.75 Z10.00 F500
G21 G17 G90 G1  X-10 F500
G21 G17 G90 G1 X0.00 Y-6.73 Z10.00 F500
G21 G17 G90 G1  X-10 F500
G21 G17 G90 G1 X0.00 Y0.00 Z20.00 F500
G21 G17 G90 G1  X-10 F500
G21 G17 G90 G1 X0.00 Y9.55 Z20.00 F500
G21 G17 G90 G1  X-10 F500
G21 G17 G90 G1 X0.00 Y18.36 Z20.00 F500
G21 G17 G90 G1  X-10 F500
G21 G17 G90 G1 X0.00 Y25.74 Z20.00 F500
G21 G17 G90 G1  X-10 F500
G21 G17 G90 G1 X0.00 Y31.13 Z20.00 F500
G21 G17 G90 G1  X-10 F500
G21 G17 G90 G1 X0.00 Y34.11 Z20.00 F500
G21 G17 G90 G1  X-10 F500
G21 G17 G90 G1 X0.00 Y34.45 Z20.00 F500
G21 G17 G90 G1  X-10 F500
G21 G17 G90 G1 X0.00 Y32.12 Z20.00 F500
G21 G17 G90 G1  X-10 F500
G21 G17 G90 G1 X0.00 Y27.30 Z20.00 F500
G21 G17 G90 G1  X-10 F500
G21 G17 G90 G1 X0.00 Y20.36 Z20.00 F500
G21 G17 G90 G1  X-10 F500
G21 G17 G90 G1 X0.00 Y11.85 Z20.00 F500
G21 G17 G90 G1  X-10 F500
G21 G17 G90 G1 X0.00 Y2.42 Z20.00 F500
G21 G17 G90 G1  X-10 F500
G21 G17 G90 G1 X0.00 Y-7.20 Z20.00 F500
G21 G17 G90 G1  X-10 F500
G21 G17 G90 G1 X0.00 Y-16.26 Z20.00 F500
G21 G17 G90 G1  X-10 F500
G21 G17 G90 G1 X0.00 Y-24.06 Z20.00 F500
G21 G17 G90 G1  X-10 F500
G21 G17 G90 G1 X0.00 Y-30.00 Z20.00 F500
G21 G17 G90 G1  X-10 F500
G21 G17 G90 G1 X0.00 Y-33.61 Z20.00 F500
G21 G17 G90 G1  X-10 F500
G21 G17 G90 G1 X0.00 Y-34.62 Z20.00 F500
G21 G17 G90 G1  X-10 F500
G21 G17 G90 G1 X0.00 Y-32.94 Z20.00 F500
G21 G17 G90 G1  X-10 F500
G21 G17 G90 G1 X0.00 Y-28.72 Z20.00 F500
G21 G17 G90 G1  X-10 F500
G21 G17 G90 G1 X0.00 Y-22.27 Z20.00 F500
G21 G17 G90 G1  X-10 F500
G21 G17 G90 G1 X0.00 Y-14.09 Z20.00 F500
G21 G17 G90 G1  X-10 F500
G21 G17 G90 G1 X0.00 Y-4.82 Z20.00 F500
G21 G17 G90 G1  X-10 F500
G21 G17 G90 G1 X0.00 Y0.00 Z30.00 F500
G21 G17 G90 G1  X-10 F500
G21 G17 G90 G1 X0.00 Y9.48 Z30.00 F500
G21 G17 G90 G1  X-10 F500
G21 G17 G90 G1 X0.00 Y17.71 Z30.00 F500
G21 G17 G90 G1  X-10 F500
G21 G17 G90 G1 X0.00 Y23.58 Z30.00 F500
G21 G17 G90 G1  X-10 F500
G21 G17 G90 G1 X0.00 Y26.32 Z30.00 F500
G21 G17 G90 G1  X-10 F500
G21 G17 G90 G1 X0.00 Y25.56 Z30.00 F500
G21 G17 G90 G1  X-10 F500
G21 G17 G90 G1 X0.00 Y21.41 Z30.00 F500
G21 G17 G90 G1  X-10 F500
G21 G17 G90 G1 X0.00 Y14.41 Z30.00 F500
G21 G17 G90 G1  X-10 F500
G21 G17 G90 G1 X0.00 Y5.50 Z30.00 F500
G21 G17 G90 G1  X-10 F500
G21 G17 G90 G1 X0.00 Y-4.14 Z30.00 F500
G21 G17 G90 G1  X-10 F500
G21 G17 G90 G1 X0.00 Y-13.23 Z30.00 F500
G21 G17 G90 G1  X-10 F500
G21 G17 G90 G1 X0.00 Y-20.56 Z30.00 F500
G21 G17 G90 G1  X-10 F500
G21 G17 G90 G1 X0.00 Y-25.16 Z30.00 F500
G21 G17 G90 G1  X-10 F500
G21 G17 G90 G1 X0.00 Y-26.42 Z30.00 F500
G21 G17 G90 G1  X-10 F500
G21 G17 G90 G1 X0.00 Y-24.17 Z30.00 F500
G21 G17 G90 G1  X-10 F500
G21 G17 G90 G1 X0.00 Y-18.71 Z30.00 F500
G21 G17 G90 G1  X-10 F500
G21 G17 G90 G1 X0.00 Y-10.76 Z30.00 F500
G21 G17 G90 G1  X-10 F500
G21 G17 G90 G1 X0.00 Y-1.38 Z30.00 F500
G21 G17 G90 G1  X-10 F500
G21 G17 G90 G1 X0.00 Y0.00 Z40.00 F500
G21 G17 G90 G1  X-10 F500
M30
